QZS-2 (MICHIBIKI-2)     
1 42738U 17028A   26093.28308766 -.00000218  00000+0  00000+0 0  9992
2 42738  39.5466 244.2448 0742295 270.5974 278.6523  1.00254002  6878
VIASAT-2                
1 42740U 17029A   26094.23366003 -.00000266  00000+0  00000+0 0  9993
2 42740   0.0200 257.6051 0000428 128.0893 181.0648  1.00272212 32462
EUTELSAT 172B           
1 42741U 17029B   26094.28158690 -.00000006  00000+0  00000+0 0  9992
2 42741   0.0205 159.9296 0000152 276.0332  30.0034  1.00272433 33007
GSAT-19                 
1 42747U 17031A   26094.24350380  .00000125  00000+0  00000+0 0  9998
2 42747   0.0936  84.9174 0005424 321.5280 281.6095  1.00270799 32408
ECHOSTAR 21             
1 42749U 17032A   26094.17827983  .00000064  00000+0  00000+0 0  9993
2 42749   1.7845 350.8467 0002516  19.1043 256.9765  1.00273839 32354
ZHONGXING-9A            
1 42763U 17035A   26094.11700625  .00000102  00000+0  00000+0 0  9992
2 42763   4.7949  76.1306 0006105 293.2467 286.3149  0.99778131 32918
BULGARIASAT-1           
1 42801U 17038A   26094.17663315  .00000010  00000+0  00000+0 0  9996
2 42801   0.0541  80.7265 0003062 305.8399 231.4100  1.00268039 32109
HELLAS-SAT 3            
1 42814U 17040A   26094.18399985  .00000152  00000+0  00000+0 0  9990
2 42814   0.0621  33.0390 0005269 347.0689 277.6361  1.00269784 32067
GSAT-17                 
1 42815U 17040B   26094.12350627 -.00000259  00000+0  00000+0 0  9994
2 42815   0.0660  74.9087 0004142 232.7254  22.7523  1.00273285 32043
INTELSAT 35E (IS-35E)   
1 42818U 17041A   26094.22197449 -.00000238  00000+0  00000+0 0  9997
2 42818   0.0167 219.8942 0002126 154.6653 223.3781  1.00273083 32077
FALCON 9 R/B            
1 42819U 17041B   26091.26804928  .00002112  00000+0  95540-3 0  9995
2 42819  25.3059 205.6359 7468350  34.3853 356.3100  2.04503922 61809
COSMOS 2520             
1 42907U 17046A   26094.24350380  .00000136  00000+0  00000+0 0  9994
2 42907   0.0252 124.5450 0000283  80.2105 120.4889  1.00272513 31651
BREEZE-M R/B            
1 42909U 17046C   26093.77486477 -.00000188  00000+0  00000+0 0  9998
2 42909   8.4891  68.9593 0756330 159.8408 203.4164  0.90332796 28486
TDRS 13                 
1 42915U 17047A   26094.17394647 -.00000100  00000+0  00000+0 0  9992
2 42915   3.4357   0.8557 0012050  97.1245 145.6556  1.00272422 31608
QZS-3 (MICHIBIKI-3)     
1 42917U 17048A   26094.25600255 -.00000348  00000+0  00000+0 0  9993
2 42917   0.0631 146.2980 0002116 230.5952  34.8794  1.00271642 31519
AMAZONAS 5              
1 42934U 17053A   26094.23548005 -.00000283  00000+0  00000+0 0  9998
2 42934   0.0433 312.3523 0004813  38.3585 225.6106  1.00271898 31306
ASIASAT 9               
1 42942U 17057A   26093.91516615 -.00000361  00000+0  00000+0 0  9994
2 42942   0.0140 218.3204 0002220 152.0238 273.4532  1.00270306 31116
