[{"OBJECT_NAME":"QZS-2 (MICHIBIKI-2)","OBJECT_ID":"2017-028A","EPOCH":"2026-04-03T06:47:38.773824","MEAN_MOTION":1.00254002,"ECCENTRICITY":0.07422959,"INCLINATION":39.5466,"RA_OF_ASC_NODE":244.2448,"ARG_OF_PERICENTER":270.5974,"MEAN_ANOMALY":278.6523,"EPHEMERIS_TYPE":0,"CLASSIFICATION_TYPE":"U","NORAD_CAT_ID":42738,"ELEMENT_SET_NO":999,"REV_AT_EPOCH":687,"BSTAR":0,"MEAN_MOTION_DOT":-2.18e-6,"MEAN_MOTION_DDOT":0},{"OBJECT_NAME":"VIASAT-2","OBJECT_ID":"2017-029A","EPOCH":"2026-04-04T05:36:28.226592","MEAN_MOTION":1.00272212,"ECCENTRICITY":4.286e-5,"INCLINATION":0.02,"RA_OF_ASC_NODE":257.6051,"ARG_OF_PERICENTER":128.0893,"MEAN_ANOMALY":181.0648,"EPHEMERIS_TYPE":0,"CLASSIFICATION_TYPE":"U","NORAD_CAT_ID":42740,"ELEMENT_SET_NO":999,"REV_AT_EPOCH":3246,"BSTAR":0,"MEAN_MOTION_DOT":-2.66e-6,"MEAN_MOTION_DDOT":0},{"OBJECT_NAME":"EUTELSAT 172B","OBJECT_ID":"2017-029B","EPOCH":"2026-04-04T06:45:29.108160","MEAN_MOTION":1.00272433,"ECCENTRICITY":1.52e-5,"INCLINATION":0.0205,"RA_OF_ASC_NODE":159.9296,"ARG_OF_PERICENTER":276.0332,"MEAN_ANOMALY":30.0034,"EPHEMERIS_TYPE":0,"CLASSIFICATION_TYPE":"U","NORAD_CAT_ID":42741,"ELEMENT_SET_NO":999,"REV_AT_EPOCH":3300,"BSTAR":0,"MEAN_MOTION_DOT":-6.0e-8,"MEAN_MOTION_DDOT":0},{"OBJECT_NAME":"GSAT-19","OBJECT_ID":"2017-031A","EPOCH":"2026-04-04T05:50:38.728320","MEAN_MOTION":1.00270799,"ECCENTRICITY":0.00054246,"INCLINATION":0.0936,"RA_OF_ASC_NODE":84.9174,"ARG_OF_PERICENTER":321.528,"MEAN_ANOMALY":281.6095,"EPHEMERIS_TYPE":0,"CLASSIFICATION_TYPE":"U","NORAD_CAT_ID":42747,"ELEMENT_SET_NO":999,"REV_AT_EPOCH":3240,"BSTAR":0,"MEAN_MOTION_DOT":1.25e-6,"MEAN_MOTION_DDOT":0},{"OBJECT_NAME":"ECHOSTAR 21","OBJECT_ID":"2017-032A","EPOCH":"2026-04-04T04:16:43.377312","MEAN_MOTION":1.00273839,"ECCENTRICITY":0.00025167,"INCLINATION":1.7845,"RA_OF_ASC_NODE":350.8467,"ARG_OF_PERICENTER":19.1043,"MEAN_ANOMALY":256.9765,"EPHEMERIS_TYPE":0,"CLASSIFICATION_TYPE":"U","NORAD_CAT_ID":42749,"ELEMENT_SET_NO":999,"REV_AT_EPOCH":3235,"BSTAR":0,"MEAN_MOTION_DOT":6.4e-7,"MEAN_MOTION_DDOT":0},{"OBJECT_NAME":"ZHONGXING-9A","OBJECT_ID":"2017-035A","EPOCH":"2026-04-04T02:48:29.340000","MEAN_MOTION":0.99778131,"ECCENTRICITY":0.0006105,"INCLINATION":4.7949,"RA_OF_ASC_NODE":76.1306,"ARG_OF_PERICENTER":293.2467,"MEAN_ANOMALY":286.3149,"EPHEMERIS_TYPE":0,"CLASSIFICATION_TYPE":"U","NORAD_CAT_ID":42763,"ELEMENT_SET_NO":999,"REV_AT_EPOCH":3291,"BSTAR":0,"MEAN_MOTION_DOT":1.02e-6,"MEAN_MOTION_DDOT":0},{"OBJECT_NAME":"BULGARIASAT-1","OBJECT_ID":"2017-038A","EPOCH":"2026-04-04T04:14:21.104160","MEAN_MOTION":1.00268039,"ECCENTRICITY":0.00030624,"INCLINATION":0.0541,"RA_OF_ASC_NODE":80.7265,"ARG_OF_PERICENTER":305.8399,"MEAN_ANOMALY":231.41,"EPHEMERIS_TYPE":0,"CLASSIFICATION_TYPE":"U","NORAD_CAT_ID":42801,"ELEMENT_SET_NO":999,"REV_AT_EPOCH":3210,"BSTAR":0,"MEAN_MOTION_DOT":1.0e-7,"MEAN_MOTION_DDOT":0},{"OBJECT_NAME":"HELLAS-SAT 3","OBJECT_ID":"2017-040A","EPOCH":"2026-04-04T04:24:57.587040","MEAN_MOTION":1.00269784,"ECCENTRICITY":0.0005269,"INCLINATION":0.0621,"RA_OF_ASC_NODE":33.039,"ARG_OF_PERICENTER":347.0689,"MEAN_ANOMALY":277.6361,"EPHEMERIS_TYPE":0,"CLASSIFICATION_TYPE":"U","NORAD_CAT_ID":42814,"ELEMENT_SET_NO":999,"REV_AT_EPOCH":3206,"BSTAR":0,"MEAN_MOTION_DOT":1.52e-6,"MEAN_MOTION_DDOT":0},{"OBJECT_NAME":"GSAT-17","OBJECT_ID":"2017-040B","EPOCH":"2026-04-04T02:57:50.941728","MEAN_MOTION":1.00273285,"ECCENTRICITY":0.00041427,"INCLINATION":0.066,"RA_OF_ASC_NODE":74.9087,"ARG_OF_PERICENTER":232.7254,"MEAN_ANOMALY":22.7523,"EPHEMERIS_TYPE":0,"CLASSIFICATION_TYPE":"U","NORAD_CAT_ID":42815,"ELEMENT_SET_NO":999,"REV_AT_EPOCH":3204,"BSTAR":0,"MEAN_MOTION_DOT":-2.59e-6,"MEAN_MOTION_DDOT":0},{"OBJECT_NAME":"INTELSAT 35E (IS-35E)","OBJECT_ID":"2017-041A","EPOCH":"2026-04-04T05:19:38.595936","MEAN_MOTION":1.00273083,"ECCENTRICITY":0.00021263,"INCLINATION":0.0167,"RA_OF_ASC_NODE":219.8942,"ARG_OF_PERICENTER":154.6653,"MEAN_ANOMALY":223.3781,"EPHEMERIS_TYPE":0,"CLASSIFICATION_TYPE":"U","NORAD_CAT_ID":42818,"ELEMENT_SET_NO":999,"REV_AT_EPOCH":3207,"BSTAR":0,"MEAN_MOTION_DOT":-2.38e-6,"MEAN_MOTION_DDOT":0},{"OBJECT_NAME":"FALCON 9 R/B","OBJECT_ID":"2017-041B","EPOCH":"2026-04-01T06:25:59.457792","MEAN_MOTION":2.04503922,"ECCENTRICITY":0.74683504,"INCLINATION":25.3059,"RA_OF_ASC_NODE":205.6359,"ARG_OF_PERICENTER":34.3853,"MEAN_ANOMALY":356.31,"EPHEMERIS_TYPE":0,"CLASSIFICATION_TYPE":"U","NORAD_CAT_ID":42819,"ELEMENT_SET_NO":999,"REV_AT_EPOCH":6180,"BSTAR":0.00095539631,"MEAN_MOTION_DOT":2.112e-5,"MEAN_MOTION_DDOT":0},{"OBJECT_NAME":"COSMOS 2520","OBJECT_ID":"2017-046A","EPOCH":"2026-04-04T05:50:38.728320","MEAN_MOTION":1.00272513,"ECCENTRICITY":2.833e-5,"INCLINATION":0.0252,"RA_OF_ASC_NODE":124.545,"ARG_OF_PERICENTER":80.2105,"MEAN_ANOMALY":120.4889,"EPHEMERIS_TYPE":0,"CLASSIFICATION_TYPE":"U","NORAD_CAT_ID":42907,"ELEMENT_SET_NO":999,"REV_AT_EPOCH":3165,"BSTAR":0,"MEAN_MOTION_DOT":1.36e-6,"MEAN_MOTION_DDOT":0},{"OBJECT_NAME":"BREEZE-M R/B","OBJECT_ID":"2017-046C","EPOCH":"2026-04-03T18:35:48.316128","MEAN_MOTION":0.90332796,"ECCENTRICITY":0.07563306,"INCLINATION":8.4891,"RA_OF_ASC_NODE":68.9593,"ARG_OF_PERICENTER":159.8408,"MEAN_ANOMALY":203.4164,"EPHEMERIS_TYPE":0,"CLASSIFICATION_TYPE":"U","NORAD_CAT_ID":42909,"ELEMENT_SET_NO":999,"REV_AT_EPOCH":2848,"BSTAR":0,"MEAN_MOTION_DOT":-1.88e-6,"MEAN_MOTION_DDOT":0},{"OBJECT_NAME":"TDRS 13","OBJECT_ID":"2017-047A","EPOCH":"2026-04-04T04:10:28.975008","MEAN_MOTION":1.00272422,"ECCENTRICITY":0.00120501,"INCLINATION":3.4357,"RA_OF_ASC_NODE":0.8557,"ARG_OF_PERICENTER":97.1245,"MEAN_ANOMALY":145.6556,"EPHEMERIS_TYPE":0,"CLASSIFICATION_TYPE":"U","NORAD_CAT_ID":42915,"ELEMENT_SET_NO":999,"REV_AT_EPOCH":3160,"BSTAR":0,"MEAN_MOTION_DOT":-1.0e-6,"MEAN_MOTION_DDOT":0},{"OBJECT_NAME":"QZS-3 (MICHIBIKI-3)","OBJECT_ID":"2017-048A","EPOCH":"2026-04-04T06:08:38.620320","MEAN_MOTION":1.00271642,"ECCENTRICITY":0.00021161,"INCLINATION":0.0631,"RA_OF_ASC_NODE":146.298,"ARG_OF_PERICENTER":230.5952,"MEAN_ANOMALY":34.8794,"EPHEMERIS_TYPE":0,"CLASSIFICATION_TYPE":"U","NORAD_CAT_ID":42917,"ELEMENT_SET_NO":999,"REV_AT_EPOCH":3151,"BSTAR":0,"MEAN_MOTION_DOT":-3.48e-6,"MEAN_MOTION_DDOT":0},{"OBJECT_NAME":"AMAZONAS 5","OBJECT_ID":"2017-053A","EPOCH":"2026-04-04T05:39:05.476320","MEAN_MOTION":1.00271898,"ECCENTRICITY":0.00048139,"INCLINATION":0.0433,"RA_OF_ASC_NODE":312.3523,"ARG_OF_PERICENTER":38.3585,"MEAN_ANOMALY":225.6106,"EPHEMERIS_TYPE":0,"CLASSIFICATION_TYPE":"U","NORAD_CAT_ID":42934,"ELEMENT_SET_NO":999,"REV_AT_EPOCH":3130,"BSTAR":0,"MEAN_MOTION_DOT":-2.83e-6,"MEAN_MOTION_DDOT":0},{"OBJECT_NAME":"ASIASAT 9","OBJECT_ID":"2017-057A","EPOCH":"2026-04-03T21:57:50.355360","MEAN_MOTION":1.00270306,"ECCENTRICITY":0.00022206,"INCLINATION":0.014,"RA_OF_ASC_NODE":218.3204,"ARG_OF_PERICENTER":152.0238,"MEAN_ANOMALY":273.4532,"EPHEMERIS_TYPE":0,"CLASSIFICATION_TYPE":"U","NORAD_CAT_ID":42942,"ELEMENT_SET_NO":999,"REV_AT_EPOCH":3111,"BSTAR":0,"MEAN_MOTION_DOT":-3.61e-6,"MEAN_MOTION_DDOT":0}]
